[
  {
    "COMMENT": "GENERATED VIA SPACETRACK.ORG API",
    "ORIGINATOR": "18 SPCS",
    "NORAD_CAT_ID": "26997",
    "OBJECT_NAME": "JASON",
    "OBJECT_TYPE": "PAYLOAD",
    "CLASSIFICATION_TYPE": "U",
    "INTLDES": "01055A",
    "EPOCH": "2023-05-16 04:05:49",
    "EPOCH_MICROSECONDS": "586784",
    "MEAN_MOTION": "12.84022014",
    "ECCENTRICITY": "0.000684",
    "INCLINATION": "66.0389",
    "RA_OF_ASC_NODE": "270.0802",
    "ARG_OF_PERICENTER": "264.2719",
    "MEAN_ANOMALY": "155.8033",
    "EPHEMERIS_TYPE": "0",
    "ELEMENT_SET_NO": "999",
    "REV_AT_EPOCH": "404",
    "BSTAR": "-0.00005194",
    "MEAN_MOTION_DOT": "-0.00000074",
    "MEAN_MOTION_DDOT": "0",
    "FILE": "3908976",
    "TLE_LINE0": "0 JASON",
    "TLE_LINE1": "1 26997U 01055A   23136.17071281 -.00000074  00000-0 -51940-4 0  9992",
    "TLE_LINE2": "2 26997  66.0389 270.0802 0006840 264.2719 155.8033 12.84022014  4042",
    "OBJECT_ID": "2001-055A",
    "OBJECT_NUMBER": "26997",
    "SEMIMAJOR_AXIS": "7703.478",
    "PERIOD": "112.148",
    "APOGEE": "1330.612",
    "PERIGEE": "1320.074",
    "DECAYED": "0"
  },
  {
    "COMMENT": "GENERATED VIA SPACETRACK.ORG API",
    "ORIGINATOR": "18 SPCS",
    "NORAD_CAT_ID": "26997",
    "OBJECT_NAME": "JASON",
    "OBJECT_TYPE": "PAYLOAD",
    "CLASSIFICATION_TYPE": "U",
    "INTLDES": "01055A",
    "EPOCH": "2023-05-16 14:55:10",
    "EPOCH_MICROSECONDS": "297344",
    "MEAN_MOTION": "12.84022014",
    "ECCENTRICITY": "0.0006841",
    "INCLINATION": "66.0389",
    "RA_OF_ASC_NODE": "269.1382",
    "ARG_OF_PERICENTER": "264.2398",
    "MEAN_ANOMALY": "80.0643",
    "EPHEMERIS_TYPE": "0",
    "ELEMENT_SET_NO": "999",
    "REV_AT_EPOCH": "385",
    "BSTAR": "-0.000031541",
    "MEAN_MOTION_DOT": "-0.00000069",
    "MEAN_MOTION_DDOT": "0",
    "FILE": "3909472",
    "TLE_LINE0": "0 JASON",
    "TLE_LINE1": "1 26997U 01055A   23136.62164696 -.00000069  00000-0 -31541-4 0  9994",
    "TLE_LINE2": "2 26997  66.0389 269.1382 0006841 264.2398  80.0643 12.84022014  3852",
    "OBJECT_ID": "2001-055A",
    "OBJECT_NUMBER": "26997",
    "SEMIMAJOR_AXIS": "7703.478",
    "PERIOD": "112.148",
    "APOGEE": "1330.613",
    "PERIGEE": "1320.073",
    "DECAYED": "0"
  },
  {
    "COMMENT": "GENERATED VIA SPACETRACK.ORG API",
    "ORIGINATOR": "18 SPCS",
    "NORAD_CAT_ID": "26997",
    "OBJECT_NAME": "JASON",
    "OBJECT_TYPE": "PAYLOAD",
    "CLASSIFICATION_TYPE": "U",
    "INTLDES": "01055A",
    "EPOCH": "2023-05-16 21:18:22",
    "EPOCH_MICROSECONDS": "90752",
    "MEAN_MOTION": "12.84022093",
    "ECCENTRICITY": "0.0006843",
    "INCLINATION": "66.04",
    "RA_OF_ASC_NODE": "268.5821",
    "ARG_OF_PERICENTER": "264.1877",
    "MEAN_ANOMALY": "230.0786",
    "EPHEMERIS_TYPE": "0",
    "ELEMENT_SET_NO": "999",
    "REV_AT_EPOCH": "389",
    "BSTAR": "-0.000073624",
    "MEAN_MOTION_DOT": "-0.00000079",
    "MEAN_MOTION_DDOT": "0",
    "FILE": "3909742",
    "TLE_LINE0": "0 JASON",
    "TLE_LINE1": "1 26997U 01055A   23136.88775568 -.00000079  00000-0 -73624-4 0  9997",
    "TLE_LINE2": "2 26997  66.0400 268.5821 0006843 264.1877 230.0786 12.84022093  3896",
    "OBJECT_ID": "2001-055A",
    "OBJECT_NUMBER": "26997",
    "SEMIMAJOR_AXIS": "7703.478",
    "PERIOD": "112.148",
    "APOGEE": "1330.614",
    "PERIGEE": "1320.071",
    "DECAYED": "0"
  },
  {
    "COMMENT": "GENERATED VIA SPACETRACK.ORG API",
    "ORIGINATOR": "18 SPCS",
    "NORAD_CAT_ID": "26997",
    "OBJECT_NAME": "JASON",
    "OBJECT_TYPE": "PAYLOAD",
    "CLASSIFICATION_TYPE": "U",
    "INTLDES": "01055A",
    "EPOCH": "2023-05-17 21:37:11",
    "EPOCH_MICROSECONDS": "141760",
    "MEAN_MOTION": "12.84022004",
    "ECCENTRICITY": "0.0006837",
    "INCLINATION": "66.039",
    "RA_OF_ASC_NODE": "266.4662",
    "ARG_OF_PERICENTER": "264.2921",
    "MEAN_ANOMALY": "232.3973",
    "EPHEMERIS_TYPE": "0",
    "ELEMENT_SET_NO": "999",
    "REV_AT_EPOCH": "402",
    "BSTAR": "-0.000028822",
    "MEAN_MOTION_DOT": "-0.00000069",
    "MEAN_MOTION_DDOT": "0",
    "FILE": "3910633",
    "TLE_LINE0": "0 JASON",
    "TLE_LINE1": "1 26997U 01055A   23137.90082340 -.00000069  00000-0 -28822-4 0  9999",
    "TLE_LINE2": "2 26997  66.0390 266.4662 0006837 264.2921 232.3973 12.84022004  4029",
    "OBJECT_ID": "2001-055A",
    "OBJECT_NUMBER": "26997",
    "SEMIMAJOR_AXIS": "7703.478",
    "PERIOD": "112.148",
    "APOGEE": "1330.610",
    "PERIGEE": "1320.076",
    "DECAYED": "0"
  },
  {
    "COMMENT": "GENERATED VIA SPACETRACK.ORG API",
    "ORIGINATOR": "18 SPCS",
    "NORAD_CAT_ID": "26997",
    "OBJECT_NAME": "JASON",
    "OBJECT_TYPE": "PAYLOAD",
    "CLASSIFICATION_TYPE": "U",
    "INTLDES": "01055A",
    "EPOCH": "2023-05-18 12:30:55",
    "EPOCH_MICROSECONDS": "878048",
    "MEAN_MOTION": "12.84021996",
    "ECCENTRICITY": "0.0006835",
    "INCLINATION": "66.039",
    "RA_OF_ASC_NODE": "265.1698",
    "ARG_OF_PERICENTER": "264.3274",
    "MEAN_ANOMALY": "221.0525",
    "EPHEMERIS_TYPE": "0",
    "ELEMENT_SET_NO": "999",
    "REV_AT_EPOCH": "434",
    "BSTAR": "-0.000036875",
    "MEAN_MOTION_DOT": "-0.0000007",
    "MEAN_MOTION_DDOT": "0",
    "FILE": "3910991",
    "TLE_LINE0": "0 JASON",
    "TLE_LINE1": "1 26997U 01055A   23138.52148007 -.00000070  00000-0 -36875-4 0  9990",
    "TLE_LINE2": "2 26997  66.0390 265.1698 0006835 264.3274 221.0525 12.84021996  4346",
    "OBJECT_ID": "2001-055A",
    "OBJECT_NUMBER": "26997",
    "SEMIMAJOR_AXIS": "7703.478",
    "PERIOD": "112.148",
    "APOGEE": "1330.609",
    "PERIGEE": "1320.078",
    "DECAYED": "0"
  },
  {
    "COMMENT": "GENERATED VIA SPACETRACK.ORG API",
    "ORIGINATOR": "18 SPCS",
    "NORAD_CAT_ID": "26997",
    "OBJECT_NAME": "JASON",
    "OBJECT_TYPE": "PAYLOAD",
    "CLASSIFICATION_TYPE": "U",
    "INTLDES": "01055A",
    "EPOCH": "2023-05-18 14:03:44",
    "EPOCH_MICROSECONDS": "258688",
    "MEAN_MOTION": "12.84021997",
    "ECCENTRICITY": "0.0006836",
    "INCLINATION": "66.039",
    "RA_OF_ASC_NODE": "265.0351",
    "ARG_OF_PERICENTER": "264.3316",
    "MEAN_ANOMALY": "158.9325",
    "EPHEMERIS_TYPE": "0",
    "ELEMENT_SET_NO": "999",
    "REV_AT_EPOCH": "411",
    "BSTAR": "-0.000032286",
    "MEAN_MOTION_DOT": "-0.00000069",
    "MEAN_MOTION_DDOT": "0",
    "FILE": "3911221",
    "TLE_LINE0": "0 JASON",
    "TLE_LINE1": "1 26997U 01055A   23138.58592892 -.00000069  00000-0 -32286-4 0  9991",
    "TLE_LINE2": "2 26997  66.0390 265.0351 0006836 264.3316 158.9325 12.84021997  4111",
    "OBJECT_ID": "2001-055A",
    "OBJECT_NUMBER": "26997",
    "SEMIMAJOR_AXIS": "7703.478",
    "PERIOD": "112.148",
    "APOGEE": "1330.609",
    "PERIGEE": "1320.077",
    "DECAYED": "0"
  },
  {
    "COMMENT": "GENERATED VIA SPACETRACK.ORG API",
    "ORIGINATOR": "18 SPCS",
    "NORAD_CAT_ID": "26997",
    "OBJECT_NAME": "JASON",
    "OBJECT_TYPE": "PAYLOAD",
    "CLASSIFICATION_TYPE": "U",
    "INTLDES": "01055A",
    "EPOCH": "2023-05-18 21:53:48",
    "EPOCH_MICROSECONDS": "28416",
    "MEAN_MOTION": "12.84021978",
    "ECCENTRICITY": "0.0006828",
    "INCLINATION": "66.039",
    "RA_OF_ASC_NODE": "264.3533",
    "ARG_OF_PERICENTER": "264.3571",
    "MEAN_ANOMALY": "227.686",
    "EPHEMERIS_TYPE": "0",
    "ELEMENT_SET_NO": "999",
    "REV_AT_EPOCH": "415",
    "BSTAR": "-0.000047018",
    "MEAN_MOTION_DOT": "-0.00000073",
    "MEAN_MOTION_DDOT": "0",
    "FILE": "3911388",
    "TLE_LINE0": "0 JASON",
    "TLE_LINE1": "1 26997U 01055A   23138.91236144 -.00000073  00000-0 -47018-4 0  9997",
    "TLE_LINE2": "2 26997  66.0390 264.3533 0006828 264.3571 227.6860 12.84021978  4150",
    "OBJECT_ID": "2001-055A",
    "OBJECT_NUMBER": "26997",
    "SEMIMAJOR_AXIS": "7703.478",
    "PERIOD": "112.148",
    "APOGEE": "1330.603",
    "PERIGEE": "1320.083",
    "DECAYED": "0"
  },
  {
    "COMMENT": "GENERATED VIA SPACETRACK.ORG API",
    "ORIGINATOR": "18 SPCS",
    "NORAD_CAT_ID": "26997",
    "OBJECT_NAME": "JASON",
    "OBJECT_TYPE": "PAYLOAD",
    "CLASSIFICATION_TYPE": "U",
    "INTLDES": "01055A",
    "EPOCH": "2023-05-19 14:43:10",
    "EPOCH_MICROSECONDS": "490304",
    "MEAN_MOTION": "12.84021975",
    "ECCENTRICITY": "0.0006838",
    "INCLINATION": "66.039",
    "RA_OF_ASC_NODE": "262.8891",
    "ARG_OF_PERICENTER": "264.3761",
    "MEAN_ANOMALY": "227.4956",
    "EPHEMERIS_TYPE": "0",
    "ELEMENT_SET_NO": "999",
    "REV_AT_EPOCH": "424",
    "BSTAR": "-0.00003161",
    "MEAN_MOTION_DOT": "-0.00000069",
    "MEAN_MOTION_DDOT": "0",
    "FILE": "3912278",
    "TLE_LINE0": "0 JASON",
    "TLE_LINE1": "1 26997U 01055A   23139.61331586 -.00000069  00000-0 -31610-4 0  9997",
    "TLE_LINE2": "2 26997  66.0390 262.8891 0006838 264.3761 227.4956 12.84021975  4243",
    "OBJECT_ID": "2001-055A",
    "OBJECT_NUMBER": "26997",
    "SEMIMAJOR_AXIS": "7703.478",
    "PERIOD": "112.148",
    "APOGEE": "1330.611",
    "PERIGEE": "1320.076",
    "DECAYED": "0"
  },
  {
    "COMMENT": "GENERATED VIA SPACETRACK.ORG API",
    "ORIGINATOR": "18 SPCS",
    "NORAD_CAT_ID": "26997",
    "OBJECT_NAME": "JASON",
    "OBJECT_TYPE": "PAYLOAD",
    "CLASSIFICATION_TYPE": "U",
    "INTLDES": "01055A",
    "EPOCH": "2023-05-20 16:44:24",
    "EPOCH_MICROSECONDS": "303264",
    "MEAN_MOTION": "12.84021951",
    "ECCENTRICITY": "0.0006845",
    "INCLINATION": "66.039",
    "RA_OF_ASC_NODE": "260.6244",
    "ARG_OF_PERICENTER": "264.3496",
    "MEAN_ANOMALY": "198.6642",
    "EPHEMERIS_TYPE": "0",
    "ELEMENT_SET_NO": "999",
    "REV_AT_EPOCH": "462",
    "BSTAR": "-0.000029129",
    "MEAN_MOTION_DOT": "-0.00000069",
    "MEAN_MOTION_DDOT": "0",
    "FILE": "3912922",
    "TLE_LINE0": "0 JASON",
    "TLE_LINE1": "1 26997U 01055A   23140.69750351 -.00000069  00000-0 -29129-4 0  9994",
    "TLE_LINE2": "2 26997  66.0390 260.6244 0006845 264.3496 198.6642 12.84021951  4621",
    "OBJECT_ID": "2001-055A",
    "OBJECT_NUMBER": "26997",
    "SEMIMAJOR_AXIS": "7703.479",
    "PERIOD": "112.148",
    "APOGEE": "1330.617",
    "PERIGEE": "1320.070",
    "DECAYED": "0"
  }
]